NORAD_CAT_ID,OBJECT_NAME,OBJECT_TYPE,EPOCH,MEAN_MOTION,ECCENTRICITY,INCLINATION,RA_OF_ASC_NODE,ARG_OF_PERICENTER,MEAN_ANOMALY,BSTAR,MEAN_MOTION_DOT,MEAN_MOTION_DDOT,TLE_LINE0,TLE_LINE1,TLE_LINE2,SEMIMAJOR_AXIS,PERIOD,APOGEE,PERIGEE,DECAYED
53596.0,STARLINK-4668,PAYLOAD,2023-09-11 14:23:20,15.08838281,0.0001499,53.2187,9.5701,98.9145,261.2016,9.8966e-05,1.287e-05,0.0,0 STARLINK-4668,1 53596U 22104J   23254.59954821  .00001287  00000-0  98966-4 0  9996,2 53596  53.2187   9.5701 0001499  98.9145 261.2016 15.08838281 58226,6917.886,95.438,540.788,538.714,0.0
53596.0,STARLINK-4668,PAYLOAD,2023-09-11 17:34:06,15.08845407,0.0001508,53.2192,8.9744,101.9301,258.186,5.1465e-05,5.31e-06,0.0,0 STARLINK-4668,1 53596U 22104J   23254.73202465  .00000531  00000-0  51465-4 0  9996,2 53596  53.2192   8.9744 0001508 101.9301 258.1860 15.08845407 57557,6917.864,95.437,540.772,538.686,0.0
53596.0,STARLINK-4668,PAYLOAD,2023-09-12 11:03:21,15.08842122,0.0001313,53.2186,5.703,103.1976,256.9162,1.9976e-06,-2.56e-06,0.0,0 STARLINK-4668,1 53596U 22104J   23255.46066736 -.00000256  00000-0  19976-5 0  9993,2 53596  53.2186   5.7030 0001313 103.1976 256.9162 15.08842122 57663,6917.874,95.437,540.647,538.831,0.0
53596.0,STARLINK-4668,PAYLOAD,2023-09-12 12:38:44,15.08845032,0.0001483,53.2194,5.4041,103.3823,256.7335,3.6993e-05,3.01e-06,0.0,0 STARLINK-4668,1 53596U 22104J   23255.52690480  .00000301  00000-0  36993-4 0  9996,2 53596  53.2194   5.4041 0001483 103.3823 256.7335 15.08845032 58363,6917.865,95.437,540.756,538.704,0.0
53596.0,STARLINK-4668,PAYLOAD,2023-09-12 17:24:53,15.08853947,0.0001338,53.2196,4.5113,107.7552,252.3586,-1.8266e-05,-5.79e-06,0.0,0 STARLINK-4668,1 53596U 22104J   23255.72561927 -.00000579  00000-0 -18266-4 0  9993,2 53596  53.2196   4.5113 0001338 107.7552 252.3586 15.08853947 57702,6917.838,95.437,540.628,538.777,0.0
53596.0,STARLINK-4668,PAYLOAD,2023-09-13 07:43:22,15.0884473,0.0001318,53.2196,1.8357,95.3366,264.7777,6.604e-05,7.63e-06,0.0,0 STARLINK-4668,1 53596U 22104J   23256.32178283  .00000763  00000-0  66040-4 0  9995,2 53596  53.2196   1.8357 0001318  95.3366 264.7777 15.08844730 57793,6917.866,95.437,540.643,538.819,0.0
53596.0,STARLINK-4668,PAYLOAD,2023-09-13 12:29:31,15.08847612,0.0001328,53.2197,0.9461,86.8444,273.27,8.2175e-05,1.02e-05,0.0,0 STARLINK-4668,1 53596U 22104J   23256.52049909  .00001020  00000-0  82175-4 0  9993,2 53596  53.2197   0.9461 0001328  86.8444 273.2700 15.08847612 58517,6917.857,95.437,540.641,538.803,0.0
53596.0,STARLINK-4668,PAYLOAD,2023-09-13 23:37:12,15.08854159,0.0001364,53.2199,358.8645,81.1556,278.959,9.5146e-05,1.227e-05,0.0,0 STARLINK-4668,1 53596U 22104J   23256.98417204  .00001227  00000-0  95146-4 0  9991,2 53596  53.2199 358.8645 0001364  81.1556 278.9590 15.08854159 57893,6917.837,95.437,540.646,538.759,0.0
53596.0,STARLINK-4668,PAYLOAD,2023-09-14 10:44:56,15.08833425,0.0001328,53.2186,356.7843,79.61,280.5042,-6.9322e-05,-1.391e-05,0.0,0 STARLINK-4668,1 53596U 22104J   23257.44787125 -.00001391  00000-0 -69322-4 0  9996,2 53596  53.2186 356.7843 0001328  79.6100 280.5042 15.08833425 57965,6917.9,95.438,540.684,538.847,0.0
53596.0,STARLINK-4668,PAYLOAD,2023-09-14 12:20:19,15.08836634,0.0001324,53.2188,356.4862,85.5846,274.5297,-7.5146e-05,-1.484e-05,0.0,0 STARLINK-4668,1 53596U 22104J   23257.51410914 -.00001484  00000-0 -75146-4 0  9997,2 53596  53.2188 356.4862 0001324  85.5846 274.5297 15.08836634 58662,6917.891,95.438,540.672,538.84,0.0
53596.0,STARLINK-4668,PAYLOAD,2023-09-14 17:06:28,15.08839974,0.0001371,53.2192,355.5934,90.7456,269.3694,-4.2515e-05,-9.64e-06,0.0,0 STARLINK-4668,1 53596U 22104J   23257.71282596 -.00000964  00000-0 -42515-4 0  9998,2 53596  53.2192 355.5934 0001371  90.7456 269.3694 15.08839974 58005,6917.88,95.438,540.694,538.797,0.0
53596.0,STARLINK-4668,PAYLOAD,2023-09-14 23:28:01,15.08834909,0.0001142,53.2186,354.4051,97.6564,262.4558,-0.00012819,-2.327e-05,0.0,0 STARLINK-4668,1 53596U 22104J   23257.97779226 -.00002327  00000-0 -12819-3 0  9995,2 53596  53.2186 354.4051 0001142  97.6564 262.4558 15.08834909 58048,6917.896,95.438,540.551,538.971,0.0
53596.0,STARLINK-4668,PAYLOAD,2023-09-15 13:46:30,15.08832252,0.000144,53.2194,351.7286,72.8846,287.2303,-0.00012423,-2.264e-05,0.0,0 STARLINK-4668,1 53596U 22104J   23258.57396052 -.00002264  00000-0 -12423-3 0  9995,2 53596  53.2194 351.7286 0001440  72.8846 287.2303 15.08832252 58824,6917.904,95.438,540.765,538.773,0.0
53596.0,STARLINK-4668,PAYLOAD,2023-09-16 10:26:30,15.08835009,0.0001278,53.2181,347.8636,81.2357,278.8779,0.00021344,3.11e-05,0.0,0 STARLINK-4668,1 53596U 22104J   23259.43507538  .00003110  00000-0  21344-3 0  9995,2 53596  53.2181 347.8636 0001278  81.2357 278.8779 15.08835009 58269,6917.896,95.438,540.645,538.877,0.0
53596.0,STARLINK-4668,PAYLOAD,2023-09-16 13:37:16,15.0884098,0.0001318,53.2175,347.2687,77.8363,282.2777,0.00030356,4.547e-05,0.0,0 STARLINK-4668,1 53596U 22104J   23259.56755597  .00004547  00000-0  30356-3 0  9997,2 53596  53.2175 347.2687 0001318  77.8363 282.2777 15.08840980 58974,6917.877,95.437,540.654,538.831,0.0
53596.0,STARLINK-4668,PAYLOAD,2023-09-17 11:52:40,15.08851802,0.0001294,53.2167,343.1054,87.179,272.935,0.00044217,6.758e-05,0.0,0 STARLINK-4668,1 53596U 22104J   23260.49491545  .00006758  00000-0  44217-3 0  9998,2 53596  53.2167 343.1054 0001294  87.1790 272.9350 15.08851802 59114,6917.844,95.437,540.604,538.814,0.0
53596.0,STARLINK-4668,PAYLOAD,2023-09-17 23:00:22,15.08850026,0.0001282,53.2166,341.0245,84.9056,275.2082,0.00028572,4.263e-05,0.0,0 STARLINK-4668,1 53596U 22104J   23260.95859452  .00004263  00000-0  28572-3 0  9999,2 53596  53.2166 341.0245 0001282  84.9056 275.2082 15.08850026 58494,6917.85,95.437,540.602,538.828,0.0
53596.0,STARLINK-4668,PAYLOAD,2023-09-18 10:08:04,15.08839956,0.0001468,53.216,338.943,83.943,276.1729,2.592e-05,1.25e-06,0.0,0 STARLINK-4668,1 53596U 22104J   23261.42227764  .00000125  00000-0  25920-4 0  9995,2 53596  53.2160 338.9430 0001468  83.9430 276.1729 15.08839956 58565,6917.881,95.438,540.761,538.73,0.0
53596.0,STARLINK-4668,PAYLOAD,2023-09-18 22:51:09,15.08849579,0.0001504,53.2173,336.5638,93.4266,266.6899,0.00014645,2.044e-05,0.0,0 STARLINK-4668,1 53596U 22104J   23261.95219147  .00002044  00000-0  14645-3 0  9992,2 53596  53.2173 336.5638 0001504  93.4266 266.6899 15.08849579 58640,6917.851,95.437,540.757,538.676,0.0
53596.0,STARLINK-4668,PAYLOAD,2023-09-20 03:28:06,15.08831394,0.0001649,53.2174,331.2093,108.8698,251.2473,-0.00013515,-2.438e-05,0.0,0 STARLINK-4668,1 53596U 22104J   23263.14451600 -.00002438  00000-0 -13515-3 0  9991,2 53596  53.2174 331.2093 0001649 108.8698 251.2473 15.08831394 58822,6917.907,95.438,540.912,538.631,0.0
53596.0,STARLINK-4668,PAYLOAD,2023-09-20 11:25:02,15.08826924,0.0001507,53.2166,329.7237,81.2635,278.8528,-0.00014572,-2.606e-05,0.0,0 STARLINK-4668,1 53596U 22104J   23263.47572166 -.00002606  00000-0 -14572-3 0  9999,2 53596  53.2166 329.7237 0001507  81.2635 278.8528 15.08826924 59564,6917.92,95.438,540.828,538.743,0.0
53596.0,STARLINK-4668,PAYLOAD,2023-09-21 09:40:26,15.0884402,0.0001542,53.2167,325.5608,73.021,287.0951,0.00076875,0.00011969,0.0,0 STARLINK-4668,1 53596U 22104J   23264.40308653  .00011969  00000-0  76875-3 0  9995,2 53596  53.2167 325.5608 0001542  73.0210 287.0951 15.08844020 59017,6917.868,95.437,540.8,538.666,0.0
53596.0,STARLINK-4668,PAYLOAD,2023-09-21 20:48:08,15.08848453,0.0001573,53.2165,323.4793,72.2948,287.8215,0.00055393,8.541e-05,0.0,0 STARLINK-4668,1 53596U 22104J   23264.86676560  .00008541  00000-0  55393-3 0  9994,2 53596  53.2165 323.4793 0001573  72.2948 287.8215 15.08848453 59778,6917.855,95.437,540.808,538.631,0.0
53596.0,STARLINK-4668,PAYLOAD,2023-09-22 09:31:13,15.08851479,0.0001635,53.217,321.1014,76.2869,283.8305,0.00042094,6.42e-05,0.0,0 STARLINK-4668,1 53596U 22104J   23265.39668347  .00006420  00000-0  42094-3 0  9995,2 53596  53.2170 321.1014 0001635  76.2869 283.8305 15.08851479 59161,6917.845,95.437,540.841,538.579,0.0
53596.0,STARLINK-4668,PAYLOAD,2023-09-22 12:41:59,15.08856186,0.0001702,53.2176,320.5064,85.0203,275.0984,0.00044295,6.772e-05,0.0,0 STARLINK-4668,1 53596U 22104J   23265.52916097  .00006772  00000-0  44295-3 0  9993,2 53596  53.2176 320.5064 0001702  85.0203 275.0984 15.08856186 59874,6917.831,95.437,540.873,538.519,0.0
53596.0,STARLINK-4668,PAYLOAD,2023-09-22 20:38:55,15.08848998,0.0001651,53.2167,319.0196,86.1189,273.9991,0.00020555,2.986e-05,0.0,0 STARLINK-4668,1 53596U 22104J   23265.86036129  .00002986  00000-0  20555-3 0  9995,2 53596  53.2167 319.0196 0001651  86.1189 273.9991 15.08848998 59924,6917.853,95.437,540.86,538.576,0.0
53596.0,STARLINK-4668,PAYLOAD,2023-09-23 10:57:23,15.08847692,0.0001726,53.2175,316.3435,83.6597,276.4592,0.00011879,1.603e-05,0.0,0 STARLINK-4668,1 53596U 22104J   23266.45652155  .00001603  00000-0  11879-3 0  9998,2 53596  53.2175 316.3435 0001726  83.6597 276.4592 15.08847692 60014,6917.857,95.437,540.916,538.528,0.0
53596.0,STARLINK-4668,PAYLOAD,2023-09-24 02:51:15,15.08841762,0.000176,53.2174,313.3701,84.015,276.1043,6.3979e-05,7.3e-06,0.0,0 STARLINK-4668,1 53596U 22104J   23267.11892411  .00000730  00000-0  63979-4 0  9992,2 53596  53.2174 313.3701 0001760  84.0150 276.1043 15.08841762 59427,6917.875,95.437,540.958,538.522,0.0
53596.0,STARLINK-4668,PAYLOAD,2023-09-24 10:48:10,15.08842801,0.0001574,53.217,311.8822,85.5877,274.5295,1.3683e-05,-7e-07,0.0,0 STARLINK-4668,1 53596U 22104J   23267.45012291 -.00000070  00000-0  13683-4 0  9994,2 53596  53.2170 311.8822 0001574  85.5877 274.5295 15.08842801 60164,6917.872,95.437,540.826,538.648,0.0
53596.0,STARLINK-4668,PAYLOAD,2023-09-25 09:03:34,15.08851717,0.0001458,53.2155,307.7182,96.3646,263.7512,0.00022232,3.253e-05,0.0,0 STARLINK-4668,1 53596U 22104J   23268.37747908  .00003253  00000-0  22232-3 0  9990,2 53596  53.2155 307.7182 0001458  96.3646 263.7512 15.08851717 59611,6917.845,95.437,540.718,538.701,0.0
